[{"OBJECT_NAME":"COSMOS 2251 DEB","OBJECT_ID":"1993-036ACB","EPOCH":"2026-03-05T02:31:49.650528","MEAN_MOTION":14.59702904,"ECCENTRICITY":0.00634476,"INCLINATION":74.0155,"RA_OF_ASC_NODE":309.6205,"ARG_OF_PERICENTER":53.049,"MEAN_ANOMALY":99.9939,"EPHEMERIS_TYPE":0,"CLASSIFICATION_TYPE":"U","NORAD_CAT_ID":34857,"ELEMENT_SET_NO":999,"REV_AT_EPOCH":89102,"BSTAR":0.00095458346,"MEAN_MOTION_DOT":4.654e-5,"MEAN_MOTION_DDOT":0},{"OBJECT_NAME":"COSMOS 2251 DEB","OBJECT_ID":"1993-036ACD","EPOCH":"2026-03-05T06:35:25.792512","MEAN_MOTION":15.32293089,"ECCENTRICITY":0.00142219,"INCLINATION":74.0268,"RA_OF_ASC_NODE":166.184,"ARG_OF_PERICENTER":327.0309,"MEAN_ANOMALY":33.0007,"EPHEMERIS_TYPE":0,"CLASSIFICATION_TYPE":"U","NORAD_CAT_ID":34859,"ELEMENT_SET_NO":999,"REV_AT_EPOCH":89614,"BSTAR":0.0074586987,"MEAN_MOTION_DOT":0.00240845,"MEAN_MOTION_DDOT":0},{"OBJECT_NAME":"COSMOS 2251 DEB","OBJECT_ID":"1993-036ACF","EPOCH":"2026-03-03T23:06:30.072384","MEAN_MOTION":15.12933402,"ECCENTRICITY":0.0003146,"INCLINATION":74.0141,"RA_OF_ASC_NODE":243.6599,"ARG_OF_PERICENTER":240.0755,"MEAN_ANOMALY":279.359,"EPHEMERIS_TYPE":0,"CLASSIFICATION_TYPE":"U","NORAD_CAT_ID":34861,"ELEMENT_SET_NO":999,"REV_AT_EPOCH":89316,"BSTAR":0.0037366,"MEAN_MOTION_DOT":0.00066445,"MEAN_MOTION_DDOT":0},{"OBJECT_NAME":"COSMOS 2251 DEB","OBJECT_ID":"1993-036ACM","EPOCH":"2026-03-05T01:16:07.447872","MEAN_MOTION":14.36832682,"ECCENTRICITY":0.00519638,"INCLINATION":74.0375,"RA_OF_ASC_NODE":282.5296,"ARG_OF_PERICENTER":287.6745,"MEAN_ANOMALY":227.4444,"EPHEMERIS_TYPE":0,"CLASSIFICATION_TYPE":"U","NORAD_CAT_ID":34874,"ELEMENT_SET_NO":999,"REV_AT_EPOCH":88226,"BSTAR":0.00079658095,"MEAN_MOTION_DOT":2.364e-5,"MEAN_MOTION_DDOT":0},{"OBJECT_NAME":"COSMOS 2251 DEB","OBJECT_ID":"1993-036ACN","EPOCH":"2026-03-04T06:17:00.073824","MEAN_MOTION":14.49257388,"ECCENTRICITY":0.00139725,"INCLINATION":74.0466,"RA_OF_ASC_NODE":5.4328,"ARG_OF_PERICENTER":113.5452,"MEAN_ANOMALY":36.9714,"EPHEMERIS_TYPE":0,"CLASSIFICATION_TYPE":"U","NORAD_CAT_ID":34875,"ELEMENT_SET_NO":999,"REV_AT_EPOCH":88936,"BSTAR":0.00062994941,"MEAN_MOTION_DOT":2.378e-5,"MEAN_MOTION_DDOT":0},{"OBJECT_NAME":"COSMOS 2251 DEB","OBJECT_ID":"1993-036ACR","EPOCH":"2026-03-03T22:46:34.280832","MEAN_MOTION":13.44295345,"ECCENTRICITY":0.0435409,"INCLINATION":73.9627,"RA_OF_ASC_NODE":278.4607,"ARG_OF_PERICENTER":246.5017,"MEAN_ANOMALY":178.1348,"EPHEMERIS_TYPE":0,"CLASSIFICATION_TYPE":"U","NORAD_CAT_ID":34878,"ELEMENT_SET_NO":999,"REV_AT_EPOCH":82364,"BSTAR":0.0003517,"MEAN_MOTION_DOT":3.38e-6,"MEAN_MOTION_DDOT":0},{"OBJECT_NAME":"COSMOS 2251 DEB","OBJECT_ID":"1993-036ACV","EPOCH":"2026-03-04T23:30:18.220320","MEAN_MOTION":14.61780602,"ECCENTRICITY":0.00827494,"INCLINATION":74.0442,"RA_OF_ASC_NODE":68.323,"ARG_OF_PERICENTER":176.1443,"MEAN_ANOMALY":184.0381,"EPHEMERIS_TYPE":0,"CLASSIFICATION_TYPE":"U","NORAD_CAT_ID":34882,"ELEMENT_SET_NO":999,"REV_AT_EPOCH":89726,"BSTAR":0.00016529217,"MEAN_MOTION_DOT":8.33e-6,"MEAN_MOTION_DDOT":0},{"OBJECT_NAME":"COSMOS 2251 DEB","OBJECT_ID":"1993-036ACW","EPOCH":"2026-03-04T23:51:07.188480","MEAN_MOTION":14.54088448,"ECCENTRICITY":0.00914677,"INCLINATION":74.1965,"RA_OF_ASC_NODE":269.0873,"ARG_OF_PERICENTER":68.4101,"MEAN_ANOMALY":292.6778,"EPHEMERIS_TYPE":0,"CLASSIFICATION_TYPE":"U","NORAD_CAT_ID":34883,"ELEMENT_SET_NO":999,"REV_AT_EPOCH":87634,"BSTAR":0.0042702707,"MEAN_MOTION_DOT":0.00019093,"MEAN_MOTION_DDOT":0},{"OBJECT_NAME":"COSMOS 2251 DEB","OBJECT_ID":"1993-036ACX","EPOCH":"2026-03-04T23:35:15.245376","MEAN_MOTION":14.9520179,"ECCENTRICITY":0.00033948,"INCLINATION":74.0131,"RA_OF_ASC_NODE":251.2863,"ARG_OF_PERICENTER":303.3297,"MEAN_ANOMALY":216.9548,"EPHEMERIS_TYPE":0,"CLASSIFICATION_TYPE":"U","NORAD_CAT_ID":34884,"ELEMENT_SET_NO":999,"REV_AT_EPOCH":89032,"BSTAR":0.0029349295,"MEAN_MOTION_DOT":0.00032382,"MEAN_MOTION_DDOT":0},{"OBJECT_NAME":"COSMOS 2251 DEB","OBJECT_ID":"1993-036ACY","EPOCH":"2026-03-05T07:38:06.337824","MEAN_MOTION":14.52065025,"ECCENTRICITY":0.00121715,"INCLINATION":74.033,"RA_OF_ASC_NODE":27.4584,"ARG_OF_PERICENTER":98.2186,"MEAN_ANOMALY":52.2701,"EPHEMERIS_TYPE":0,"CLASSIFICATION_TYPE":"U","NORAD_CAT_ID":34885,"ELEMENT_SET_NO":999,"REV_AT_EPOCH":88677,"BSTAR":0.0010355657,"MEAN_MOTION_DOT":4.168e-5,"MEAN_MOTION_DDOT":0},{"OBJECT_NAME":"COSMOS 2251 DEB","OBJECT_ID":"1993-036ACZ","EPOCH":"2026-02-28T12:55:37.312320","MEAN_MOTION":15.57203569,"ECCENTRICITY":0.00257436,"INCLINATION":73.9475,"RA_OF_ASC_NODE":10.2626,"ARG_OF_PERICENTER":182.5911,"MEAN_ANOMALY":177.5177,"EPHEMERIS_TYPE":0,"CLASSIFICATION_TYPE":"U","NORAD_CAT_ID":34886,"ELEMENT_SET_NO":999,"REV_AT_EPOCH":64201,"BSTAR":0.0023826648,"MEAN_MOTION_DOT":0.00179856,"MEAN_MOTION_DDOT":0},{"OBJECT_NAME":"COSMOS 2251 DEB","OBJECT_ID":"1993-036ADD","EPOCH":"2026-02-28T17:43:53.900256","MEAN_MOTION":14.3771931,"ECCENTRICITY":0.00412409,"INCLINATION":74.0555,"RA_OF_ASC_NODE":240.2847,"ARG_OF_PERICENTER":239.9439,"MEAN_ANOMALY":136.6851,"EPHEMERIS_TYPE":0,"CLASSIFICATION_TYPE":"U","NORAD_CAT_ID":34908,"ELEMENT_SET_NO":999,"REV_AT_EPOCH":88400,"BSTAR":0.00056942096,"MEAN_MOTION_DOT":1.703e-5,"MEAN_MOTION_DDOT":0},{"OBJECT_NAME":"COSMOS 2251 DEB","OBJECT_ID":"1993-036ADE","EPOCH":"2026-03-04T06:05:46.642848","MEAN_MOTION":14.7850644,"ECCENTRICITY":0.00823758,"INCLINATION":74.0114,"RA_OF_ASC_NODE":276.2313,"ARG_OF_PERICENTER":29.8582,"MEAN_ANOMALY":330.7255,"EPHEMERIS_TYPE":0,"CLASSIFICATION_TYPE":"U","NORAD_CAT_ID":34909,"ELEMENT_SET_NO":999,"REV_AT_EPOCH":68056,"BSTAR":0.00058656069,"MEAN_MOTION_DOT":4.501e-5,"MEAN_MOTION_DDOT":0},{"OBJECT_NAME":"COSMOS 2251 DEB","OBJECT_ID":"1993-036ADF","EPOCH":"2026-03-05T03:01:16.255776","MEAN_MOTION":13.37824454,"ECCENTRICITY":0.04658075,"INCLINATION":73.8773,"RA_OF_ASC_NODE":331.4043,"ARG_OF_PERICENTER":76.172,"MEAN_ANOMALY":353.4984,"EPHEMERIS_TYPE":0,"CLASSIFICATION_TYPE":"U","NORAD_CAT_ID":34910,"ELEMENT_SET_NO":999,"REV_AT_EPOCH":82626,"BSTAR":0.00099505316,"MEAN_MOTION_DOT":9.63e-6,"MEAN_MOTION_DDOT":0},{"OBJECT_NAME":"COSMOS 2251 DEB","OBJECT_ID":"1993-036ADG","EPOCH":"2026-03-04T03:03:35.860032","MEAN_MOTION":14.5951209,"ECCENTRICITY":0.00841797,"INCLINATION":74.0387,"RA_OF_ASC_NODE":89.6129,"ARG_OF_PERICENTER":196.1425,"MEAN_ANOMALY":223.4023,"EPHEMERIS_TYPE":0,"CLASSIFICATION_TYPE":"U","NORAD_CAT_ID":34911,"ELEMENT_SET_NO":999,"REV_AT_EPOCH":89774,"BSTAR":0.00014828821,"MEAN_MOTION_DOT":7.07e-6,"MEAN_MOTION_DDOT":0},{"OBJECT_NAME":"COSMOS 2251 DEB","OBJECT_ID":"1993-036ADJ","EPOCH":"2026-03-02T21:28:39.252864","MEAN_MOTION":14.34664831,"ECCENTRICITY":0.0022003,"INCLINATION":74.0282,"RA_OF_ASC_NODE":135.6075,"ARG_OF_PERICENTER":231.2176,"MEAN_ANOMALY":251.1868,"EPHEMERIS_TYPE":0,"CLASSIFICATION_TYPE":"U","NORAD_CAT_ID":34913,"ELEMENT_SET_NO":999,"REV_AT_EPOCH":66337,"BSTAR":5.3925e-5,"MEAN_MOTION_DOT":1.27e-6,"MEAN_MOTION_DDOT":0}]
