COSMOS 2251 DEB         
1 34857U 93036ACB 26064.10543577  .00004654  00000+0  95458-3 0  9990
2 34857  74.0155 309.6205 0063447  53.0490  99.9939 14.59702904891020
COSMOS 2251 DEB         
1 34859U 93036ACD 26064.27460408  .00240845  00000+0  74587-2 0  9994
2 34859  74.0268 166.1840 0014221 327.0309  33.0007 15.32293089896141
COSMOS 2251 DEB         
1 34861U 93036ACF 26062.96284806  .00066445  00000+0  37366-2 0  9993
2 34861  74.0141 243.6599 0003146 240.0755 279.3590 15.12933402893168
COSMOS 2251 DEB         
1 34874U 93036ACM 26064.05286398  .00002364  00000+0  79658-3 0  9998
2 34874  74.0375 282.5296 0051963 287.6745 227.4444 14.36832682882267
COSMOS 2251 DEB         
1 34875U 93036ACN 26063.26180641  .00002378  00000+0  62995-3 0  9996
2 34875  74.0466   5.4328 0013972 113.5452  36.9714 14.49257388889366
COSMOS 2251 DEB         
1 34878U 93036ACR 26062.94900788  .00000338  00000+0  35170-3 0  9994
2 34878  73.9627 278.4607 0435409 246.5017 178.1348 13.44295345823645
COSMOS 2251 DEB         
1 34882U 93036ACV 26063.97937755  .00000833  00000+0  16529-3 0  9994
2 34882  74.0442  68.3230 0082749 176.1443 184.0381 14.61780602897268
COSMOS 2251 DEB         
1 34883U 93036ACW 26063.99383320  .00019093  00000+0  42703-2 0  9990
2 34883  74.1965 269.0873 0091467  68.4101 292.6778 14.54088448876347
COSMOS 2251 DEB         
1 34884U 93036ACX 26063.98281534  .00032382  00000+0  29349-2 0  9991
2 34884  74.0131 251.2863 0003394 303.3297 216.9548 14.95201790890323
COSMOS 2251 DEB         
1 34885U 93036ACY 26064.31812891  .00004168  00000+0  10356-2 0  9995
2 34885  74.0330  27.4584 0012171  98.2186  52.2701 14.52065025886776
COSMOS 2251 DEB         
1 34886U 93036ACZ 26059.53862630  .00179856  00000+0  23827-2 0  9994
2 34886  73.9475  10.2626 0025743 182.5911 177.5177 15.57203569642012
COSMOS 2251 DEB         
1 34908U 93036ADD 26059.73881829  .00001703  00000+0  56942-3 0  9992
2 34908  74.0555 240.2847 0041240 239.9439 136.6851 14.37719310884005
COSMOS 2251 DEB         
1 34909U 93036ADE 26063.25401207  .00004501  00000+0  58656-3 0  9996
2 34909  74.0114 276.2313 0082375  29.8582 330.7255 14.78506440680566
COSMOS 2251 DEB         
1 34910U 93036ADF 26064.12588259  .00000963  00000+0  99505-3 0  9994
2 34910  73.8773 331.4043 0465807  76.1720 353.4984 13.37824454826266
COSMOS 2251 DEB         
1 34911U 93036ADG 26063.12749838  .00000707  00000+0  14829-3 0  9998
2 34911  74.0387  89.6129 0084179 196.1425 223.4023 14.59512090897748
COSMOS 2251 DEB         
1 34913U 93036ADJ 26061.89489876  .00000127  00000+0  53925-4 0  9992
2 34913  74.0282 135.6075 0022003 231.2176 251.1868 14.34664831663377
